NORAD_CAT_ID,OBJECT_NAME,OBJECT_TYPE,EPOCH,MEAN_MOTION,ECCENTRICITY,INCLINATION,RA_OF_ASC_NODE,ARG_OF_PERICENTER,MEAN_ANOMALY,BSTAR,MEAN_MOTION_DOT,MEAN_MOTION_DDOT,TLE_LINE0,TLE_LINE1,TLE_LINE2,SEMIMAJOR_AXIS,PERIOD,APOGEE,PERIGEE,DECAYED
55433.0,STARLINK-5570,PAYLOAD,2023-02-20 22:00:01,15.54685315,0.000345,69.9999,33.0264,267.048,122.8669,-0.020392,-0.01216535,0.0,0 STARLINK-5570,1 55433U 23014AU  23051.91668981 -.01216535  00000-0 -20392-1 0  9991,2 55433  69.9999  33.0264 0003450 267.0480 122.8669 15.54685315  3370,6781.205,92.623,405.409,400.73,0.0
55433.0,STARLINK-5570,PAYLOAD,2023-02-21 14:00:01,15.52955632,0.0003155,69.9997,31.1963,271.7403,246.1098,-0.021716,-0.01234931,0.0,0 STARLINK-5570,1 55433U 23014AU  23052.58334491 -.01234931  00000-0 -21716-1 0  9992,2 55433  69.9997  31.1963 0003155 271.7403 246.1098 15.52955632  1309,6786.239,92.726,410.245,405.963,0.0
55433.0,STARLINK-5570,PAYLOAD,2023-02-22 00:00:00,15.51803464,0.0003274,70.0005,30.0552,264.1259,61.6314,-0.016728,-0.00910681,0.0,0 STARLINK-5570,1 55433U 23014AU  23053.00001157 -.00910681  00000-0 -16728-1 0  9999,2 55433  70.0005  30.0552 0003274 264.1259  61.6314 15.51803464  1306,6789.598,92.795,413.685,409.24,0.0
55433.0,STARLINK-5570,PAYLOAD,2023-02-22 06:00:00,15.51377263,0.0003269,70.0004,29.3715,268.5912,13.1279,-0.020006,-0.01072471,0.0,0 STARLINK-5570,1 55433U 23014AU  23053.25001157 -.01072471  00000-0 -20006-1 0  9997,2 55433  70.0004  29.3715 0003269 268.5912  13.1279 15.51377263  3582,6790.841,92.821,414.926,410.486,0.0
55433.0,STARLINK-5570,PAYLOAD,2023-02-22 14:00:01,15.50560433,0.0003401,70.0001,28.4603,267.3166,75.046,-0.021282,-0.01104744,0.0,0 STARLINK-5570,1 55433U 23014AU  23053.58334491 -.01104744  00000-0 -21282-1 0  9999,2 55433  70.0001  28.4603 0003401 267.3166  75.0460 15.50560433  3638,6793.226,92.87,417.401,412.78,0.0
55433.0,STARLINK-5570,PAYLOAD,2023-02-22 22:00:00,15.49657429,0.00034,70.0004,27.5506,265.0006,136.9803,-0.0008717,-0.0004831,0.0,0 STARLINK-5570,1 55433U 23014AU  23053.91667824 -.00048310  00000-0 -87170-3 0  9990,2 55433  70.0004  27.5506 0003400 265.0006 136.9803 15.49657429  3683,6795.864,92.924,420.04,415.419,0.0
55433.0,STARLINK-5570,PAYLOAD,2023-02-23 14:00:01,15.49637457,0.0003302,70.0004,25.7322,269.3065,250.6688,-0.0011991,-0.00066197,0.0,0 STARLINK-5570,1 55433U 23014AU  23054.58334491 -.00066197  00000-0 -11991-2 0  9995,2 55433  70.0004  25.7322 0003302 269.3065 250.6688 15.49637457  3798,6795.923,92.925,420.032,415.544,0.0
55433.0,STARLINK-5570,PAYLOAD,2023-02-23 22:00:00,15.49616452,0.0003313,70.0007,24.8234,263.391,315.5566,0.00038827,0.00021443,0.0,0 STARLINK-5570,1 55433U 23014AU  23054.91667824  .00021443  00000-0  38827-3 0  9992,2 55433  70.0007  24.8234 0003313 263.3910 315.5566 15.49616452  3842,6795.984,92.926,420.101,415.598,0.0
55433.0,STARLINK-5570,PAYLOAD,2023-02-24 14:00:01,15.49627334,0.0003309,70.0003,23.005,267.9045,69.0303,-0.0010491,-0.00057976,0.0,0 STARLINK-5570,1 55433U 23014AU  23055.58334491 -.00057976  00000-0 -10491-2 0  9995,2 55433  70.0003  23.0050 0003309 267.9045  69.0303 15.49627334  3941,6795.952,92.926,420.066,415.569,0.0
55433.0,STARLINK-5570,PAYLOAD,2023-02-24 22:00:00,15.49772658,0.0003477,70.0007,22.096,267.9295,127.9345,-0.0084047,-0.00443746,0.0,0 STARLINK-5570,1 55433U 23014AU  23055.91667824 -.00443746  00000-0 -84047-2 0  9993,2 55433  70.0007  22.0960 0003477 267.9295 127.9345 15.49772658  1305,6795.528,92.917,419.755,415.03,0.0
55433.0,STARLINK-5570,PAYLOAD,2023-02-25 06:00:00,15.49464525,0.0003545,70.0007,21.1868,275.4979,179.3801,-0.023928,-0.01203814,0.0,0 STARLINK-5570,1 55433U 23014AU  23056.25001157 -.01203814  00000-0 -23928-1 0  9993,2 55433  70.0007  21.1868 0003545 275.4979 179.3801 15.49464525  4044,6796.428,92.935,420.703,415.884,0.0
55433.0,STARLINK-5570,PAYLOAD,2023-02-25 14:00:01,15.48600754,0.0003318,70.0003,20.2782,273.7978,239.3625,-0.024869,-0.01212674,0.0,0 STARLINK-5570,1 55433U 23014AU  23056.58334491 -.01212674  00000-0 -24869-1 0  9998,2 55433  70.0003  20.2782 0003318 273.7978 239.3625 15.48600754  1305,6798.955,92.987,423.076,418.565,0.0
55433.0,STARLINK-5570,PAYLOAD,2023-02-25 22:00:00,15.47769293,0.0003325,70.0005,19.3713,268.3064,302.081,-0.026163,-0.01236767,0.0,0 STARLINK-5570,1 55433U 23014AU  23056.91667824 -.01236767  00000-0 -26163-1 0  9992,2 55433  70.0005  19.3713 0003325 268.3064 302.0810 15.47769293  4157,6801.39,93.037,425.517,420.994,0.0
55433.0,STARLINK-5570,PAYLOAD,2023-02-26 14:00:01,15.46019949,0.0003444,70.0002,17.5603,269.9207,51.8804,-0.027117,-0.01209018,0.0,0 STARLINK-5570,1 55433U 23014AU  23057.58334491 -.01209018  00000-0 -27117-1 0  9996,2 55433  70.0002  17.5603 0003444 269.9207  51.8804 15.46019949  1301,6806.52,93.142,430.729,426.041,0.0
55433.0,STARLINK-5570,PAYLOAD,2023-02-27 00:00:00,15.44980864,0.0003414,70.0002,16.431,270.2172,209.101,-0.029409,-0.01260015,0.0,0 STARLINK-5570,1 55433U 23014AU  23058.00001157 -.01260015  00000-0 -29409-1 0  9994,2 55433  70.0002  16.4310 0003414 270.2172 209.1010 15.44980864  1305,6809.571,93.205,433.761,429.112,0.0
55433.0,STARLINK-5570,PAYLOAD,2023-02-27 06:00:00,15.44275833,0.0003407,70.0001,15.7544,273.5567,155.521,-0.02713,-0.01145161,0.0,0 STARLINK-5570,1 55433U 23014AU  23058.25001157 -.01145161  00000-0 -27130-1 0  9994,2 55433  70.0001  15.7544 0003407 273.5567 155.5210 15.44275833  4358,6811.644,93.248,435.829,431.188,0.0
55433.0,STARLINK-5570,PAYLOAD,2023-02-27 14:00:01,15.43437538,0.0003283,69.9998,14.8529,271.0657,210.1048,-0.029295,-0.01196818,0.0,0 STARLINK-5570,1 55433U 23014AU  23058.58334491 -.01196818  00000-0 -29295-1 0  9999,2 55433  69.9998  14.8529 0003283 271.0657 210.1048 15.43437538  4402,6814.11,93.298,438.212,433.738,0.0
55433.0,STARLINK-5570,PAYLOAD,2023-02-27 22:00:01,15.42624599,0.0003222,70.0005,13.9527,268.604,263.6729,-0.03172,-0.01254858,0.0,0 STARLINK-5570,1 55433U 23014AU  23058.91668981 -.01254858  00000-0 -31720-1 0  9995,2 55433  70.0005  13.9527 0003222 268.6040 263.6729 15.42624599  1302,6816.504,93.347,440.565,436.172,0.0
55433.0,STARLINK-5570,PAYLOAD,2023-02-28 14:00:01,15.40855469,0.0003263,69.9998,12.1557,267.7923,3.4775,-0.031632,-0.01185952,0.0,0 STARLINK-5570,1 55433U 23014AU  23059.58334491 -.01185952  00000-0 -31632-1 0  9995,2 55433  69.9998  12.1557 0003263 267.7923   3.4775 15.40855469  4561,6821.72,93.455,445.811,441.359,0.0
55433.0,STARLINK-5570,PAYLOAD,2023-02-28 22:00:00,15.40050895,0.0003392,70.0002,11.259,266.8805,52.3393,-0.034667,-0.01258134,0.0,0 STARLINK-5570,1 55433U 23014AU  23059.91667824 -.01258134  00000-0 -34667-1 0  9995,2 55433  70.0002  11.2590 0003392 266.8805  52.3393 15.40050895  1307,6824.096,93.503,448.276,443.646,0.0
55433.0,STARLINK-5570,PAYLOAD,2023-03-01 06:00:00,15.3913709,0.0003398,70.0001,10.3632,274.7752,91.4051,-0.032954,-0.01168857,0.0,0 STARLINK-5570,1 55433U 23014AU  23060.25001157 -.01168857  00000-0 -32954-1 0  9994,2 55433  70.0001  10.3632 0003398 274.7752  91.4051 15.39137090  4666,6826.797,93.559,450.981,446.342,0.0
55433.0,STARLINK-5570,PAYLOAD,2023-03-01 22:00:00,15.37472704,0.0003262,70.0002,8.5756,269.9427,187.0176,-0.037787,-0.01259771,0.0,0 STARLINK-5570,1 55433U 23014AU  23060.91667824 -.01259771  00000-0 -37787-1 0  9991,2 55433  70.0002   8.5756 0003262 269.9427 187.0176 15.37472704  4761,6831.723,93.66,455.816,451.359,0.0
55433.0,STARLINK-5570,PAYLOAD,2023-03-02 20:00:01,15.35100683,0.0003178,70.0002,6.1255,269.6593,215.4196,-0.039903,-0.01234656,0.0,0 STARLINK-5570,1 55433U 23014AU  23061.83334491 -.01234656  00000-0 -39903-1 0  9991,2 55433  70.0002   6.1255 0003178 269.6593 215.4196 15.35100683  4902,6838.758,93.805,462.797,458.45,0.0
55433.0,STARLINK-5570,PAYLOAD,2023-03-03 14:00:01,15.33110936,0.0003209,70.0001,4.1273,268.6776,37.2702,-0.039447,-0.01153288,0.0,0 STARLINK-5570,1 55433U 23014AU  23062.58334491 -.01153288  00000-0 -39447-1 0  9998,2 55433  70.0001   4.1273 0003209 268.6776  37.2702 15.33110936  1300,6844.674,93.927,468.736,464.343,0.0
55433.0,STARLINK-5570,PAYLOAD,2023-03-03 22:00:00,15.32313272,0.0003384,70.0005,3.2412,267.7986,76.8336,-0.044173,-0.01267296,0.0,0 STARLINK-5570,1 55433U 23014AU  23062.91667824 -.01267296  00000-0 -44173-1 0  9991,2 55433  70.0005   3.2412 0003384 267.7986  76.8336 15.32313272  5073,6847.049,93.976,471.232,466.597,0.0
55433.0,STARLINK-5570,PAYLOAD,2023-03-04 14:00:01,15.30527179,0.0003232,70.0005,1.4722,270.7326,148.2351,-0.042211,-0.01139281,0.0,0 STARLINK-5570,1 55433U 23014AU  23063.58334491 -.01139281  00000-0 -42211-1 0  9999,2 55433  70.0005   1.4722 0003232 270.7326 148.2351 15.30527179  5174,6852.375,94.085,476.455,472.026,0.0
55433.0,STARLINK-5570,PAYLOAD,2023-03-04 22:00:00,15.29734091,0.0003236,70.0008,0.5896,270.5186,184.0415,-0.047766,-0.01264552,0.0,0 STARLINK-5570,1 55433U 23014AU  23063.91667824 -.01264552  00000-0 -47766-1 0  9995,2 55433  70.0008   0.5896 0003236 270.5186 184.0415 15.29734091  1306,6854.744,94.134,478.827,474.39,0.0
55433.0,STARLINK-5570,PAYLOAD,2023-03-05 04:00:01,15.29043429,0.0003301,70.0006,359.9281,274.473,116.1967,-0.045382,-0.01167135,0.0,0 STARLINK-5570,1 55433U 23014AU  23064.16668981 -.01167135  00000-0 -45382-1 0  9999,2 55433  70.0006 359.9281 0003301 274.4730 116.1967 15.29043429  5269,6856.808,94.177,480.936,476.409,0.0
55433.0,STARLINK-5570,PAYLOAD,2023-03-05 14:00:01,15.27952861,0.0003056,70.0007,358.8273,270.1131,252.6007,-0.04569,-0.01138897,0.0,0 STARLINK-5570,1 55433U 23014AU  23064.58334491 -.01138897  00000-0 -45690-1 0  9996,2 55433  70.0007 358.8273 0003056 270.1131 252.6007 15.27952861  1303,6860.07,94.244,484.031,479.838,0.0
55433.0,STARLINK-5570,PAYLOAD,2023-03-05 22:00:00,15.27149628,0.0003099,70.0011,357.9482,267.5829,287.6387,-0.051157,-0.01252,0.0,0 STARLINK-5570,1 55433U 23014AU  23064.91667824 -.01252000  00000-0 -51157-1 0  9990,2 55433  70.0011 357.9482 0003099 267.5829 287.6387 15.27149628  5381,6862.475,94.293,486.467,482.213,0.0
